JCAT , SatcatLaunch_Tag Piece     , Type     , Name                        , PLName                      , LDate      , Parent      , SDate              , Primary, DDate              , Status Dest   , Owner       , State , Manufacturer, Bus              , Motor       , Mass     , DryMass   , TotMass  , Length, Diamete, Span   , Shape                    , ODate      , Perigee, Apogee, Inc   , OpOrbitOQU AltNames, STATUS, OBJECT_NAME             , OBJECT_ID , EPOCH                     , MEAN_MOTION, ECCENTRICITY, INCLINATION, RA_OF_ASC_NODE, ARG_OF_PERICENTER, MEAN_ANOMALY, EPHEMERIS_TYPE, CLASSIFICATION_TYPE, NORAD_CAT_ID, ELEMENT_SET_NO, REV_AT_EPOCH, BSTAR         , MEAN_MOTION_DOT, MEAN_MOTION_DDOT, LAST_UPDATED       , DATA_SOURCE               , TLE_LINE1                                                            , TLE_LINE2                                                            , N2YO_SAT_NAME              , TLE_FETCHED
28659, 28659 2005-019   2005-019A , P        , DirecTV 8                   , DirecTV-8                   , 2005 May 22, S28660      , 2005 May 23 0314   , Earth  , 2017 Jun 12        , N      -      , DTV         , US    , LOR         , SSL-1300         , R-4D-11-164 , 3711     , 2000    ? , 3711     , 5.6  ?, 2.8  ? , 31.0  ?, Box + 2 Pan              , 2005 Jul 22, 35776  , 35796 , 0.04  , GEO/S  -           , ACTIVE, DIRECTV 8               , 2005-019A , 2025-10-03T13:04:57.776160,  1.00271548, 0.00032679  ,      0.0044,       100.9029,          103.0884,     245.724 ,            0.0, U                  ,      28659.0,          999.0,       7449.0, 0.0           , 1e-08          , 0.0             , 2025-10-04 23:19:22, planet4589.org + Celestrak, 1 28659U 05019A   25276.54511315  .00000001  00000-0  00000-0 0  9993, 2 28659   0.0044 100.9029 0003268 103.0884 245.7240  1.00271548 74490, DIRECTV 8                  , YES
28702, 28702 2005-022   2005-022A , P      O , Intelsat IA-8               , IA-8                        , 2005 Jun 23, S28703      , 2005 Jun 23 1432   , Earth  , 2007 Feb           , N      -      , INTELD      , US    , LOR         , SSL-1300         , R-4D-11-164 , 5493     , 3000    ? , 5493     , 7.0  ?, 2.6  ? , 27.0  ?, Box + 2 Pan              , 2005 Aug 23, 35784  , 35786 , 0.03  , GEO/S  -           , ACTIVE, GALAXY 28 (G-28)        , 2005-022A , 2025-10-03T13:13:34.449888,  1.00271185, 0.00016115  ,      2.6342,        82.1193,          118.4823,     281.605 ,            0.0, U                  ,      28702.0,          999.0,       4941.0, 0.0           , -1.84e-06      , 0.0             , 2025-10-04 23:19:22, planet4589.org + Celestrak, 1 28702U 05022A   25277.47886052 -.00000184  00000-0  00000+0 0  9994, 2 28702   2.6366  82.1072 0001620 120.9703 254.0380  1.00271013 49421, GALAXY 28 (IA 8)           , YES
28737, 28737 2005-024   2005-024A , P        , Shi Jian 7                  , Tansuo-2                    , 2005 Jul  5, S28738      , 2005 Jul  5 2252   , Earth  , -                  , O      -      , CASC        , CN    , SAST        , FY-1?            , -           , 1000    ?, 1000    ? , 1000    ?, 1.4  ?, 1.4  ? , 8.6  ? , Box + 2 Pan              , 2005 Jul  7, 547    , 569   , 97.58 , LLEO/S -   SJ-7    , ACTIVE, SJ-7                    , 2005-024A , 2025-10-03T00:35:46.078368, 15.16514168, 0.00170223  ,     97.7562,       294.7328,          196.8059,     163.2611,            0.0, U                  ,      28737.0,          999.0,      10898.0, 0.00074886786 , 0.00014594     , 0.0             , 2025-10-04 23:19:22, planet4589.org + Celestrak, 1 28737U 05024A   25276.02483887  .00014594  00000-0  74887-3 0  9990, 2 28737  97.7562 294.7328 0017022 196.8059 163.2611 15.16514168108984, SJ-7                       , YES
28786, 28786 2005-028   2005-028A , P        , Thaicom 4                   , iPSTAR 1                    , 2005 Aug 11, S28787      , 2005 Aug 11 0849   , Earth  , -                  , O      -      , SHIN        , T     , LOR         , SSL-1300SX       , R-4D-15-300 , 6480     , 3400      , 6480     , 8.1   , 3.8    , 26.0   , Box + 2 Pan              , 2005 Oct 11, 35777  , 35797 , 0.04  , GEO/S  -           , ACTIVE, THAICOM 4               , 2005-028A , 2025-10-03T14:13:05.136384,  1.00272519, 0.00024433  ,      0.032 ,        95.2543,          101.0122,     149.0677,            0.0, U                  ,      28786.0,          999.0,       4967.0, 0.0           , -3.62e-06      , 0.0             , 2025-10-04 23:19:22, planet4589.org + Celestrak, 1 28786U 05028A   25277.44878706 -.00000361  00000-0  00000+0 0  9993, 2 28786   0.0352  92.3542 0002461 104.4968  97.6244  1.00272882 49682, IPSTAR 1                   , YES
28810, 28810 2005-031   2005-031B , P        , Reimei                      , INDEX                       , 2005 Aug 23, S28811      , 2005 Aug 23 2125   , Earth  , -                  , O      -      , ISASJ       , J     , ISASJ       , Index            , -           , 70       , 70        , 70       , 0.7   , 0.6    , 3.0    , Box + 2 Pan              , 2005 Aug 26, 602    , 648   , 97.83 , LEO/S  -           , ACTIVE, REIMEI (INDEX)          , 2005-031B , 2025-10-03T06:49:08.609088, 15.07097565, 0.00201584  ,     97.9941,        24.2925,          260.8158,      99.0788,            0.0, U                  ,      28810.0,          999.0,       9224.0, 0.00094395978 , 0.00014187     , 0.0             , 2025-10-04 23:19:22, planet4589.org + Celestrak, 1 28810U 05031B   25277.54560535  .00010072  00000-0  67140-3 0  9995, 2 28810  97.9942  25.6023 0020333 256.4092 103.4870 15.07120910 92435, INDEX                      , YES
28868, 28868 2005-036   2005-036A , P        , Anik F1R                    , Anik F1R                    , 2005 Sep  8, S28869      , 2005 Sep  9 0705   , Earth  , -                  , O      -      , TCAN        , CA    , EADSB       , Eurostar 3000    , R-4D-15-375 , 4500     , 2000    ? , 4500     , 4.8   , 2.4    , 35.0   , Box + 2 Pan              , 2005 Nov  8, 35777  , 35795 , 0.04  , GEO/S  -           , ACTIVE, ANIK F1R                , 2005-036A , 2025-10-03T13:08:19.953024,  1.00272115, 0.00023692  ,      3.6492,        79.7517,           88.526 ,     294.0344,            0.0, U                  ,      28868.0,          999.0,       4388.0, 0.0           , -7.1e-07       , 0.0             , 2025-10-04 23:19:22, planet4589.org + Celestrak, 1 28868U 05036A   25277.47513384 -.00000070  00000-0  00000+0 0  9991, 2 28868   3.6519  79.7387 0002527  74.3930 283.0453  1.00268887 43889, ANIK F1-R                  , YES
28935, 28935 2006-003   2006-003A , P        , Echostar X                  , Echostar 10                 , 2006 Feb 15, S28936      , 2006 Feb 16 0037   , Earth  , 2008 Jan  1        , N      -      , ECHO        , US    , LMCSS       , A2100AX          , Leros       , 4333     , 2000    ? , 4333     , 6.0  ?, 3.6  ? , 26.0  ?, Box + 2 Pan              , 2006 Apr 18, 35785  , 35787 , 0.07  , GEO/S  -           , ACTIVE, ECHOSTAR 10             , 2006-003A , 2025-10-03T09:26:38.718816,  1.00272791, 0.0001755   ,      0.0544,        39.7586,          112.6768,     251.4162,            0.0, U                  ,      28935.0,          999.0,       7188.0, 0.0           , -5.5e-07       , 0.0             , 2025-10-04 23:19:22, planet4589.org + Celestrak, 1 28935U 06003A   25277.46745263 -.00000055  00000-0  00000+0 0  9996, 2 28935   0.0563  42.0438 0002126  98.0111 291.4822  1.00270638 71895, ECHOSTAR 10                , YES
28945, 28945 2006-007   2006-007A , P        , Spainsat                    , Spainsat                    , 2006 Mar 11, S28947      , 2006 Mar 11 2300   , Earth  , -                  , O      -      , HISD        , E     , LOR         , SSL-1300         , R-4D-11-164 , 3683     , 1467      , 3683     , 5.4   , 2.2    , 31.4   , Box + 2 Pan              , 2006 May 11, 35762  , 35809 , 0.01  , GEO/S  -           , ACTIVE, SPAINSAT                , 2006-007A , 2025-10-03T01:11:46.614048,  1.00270254, 0.00056663  ,      0.0203,       221.6618,          339.5716,     158.7679,            0.0, U                  ,      28945.0,          999.0,       7164.0, 0.0           , -2.15e-06      , 0.0             , 2025-10-04 23:19:22, planet4589.org + Celestrak, 1 28945U 06007A   25277.04712817 -.00000215  00000-0  00000+0 0  9992, 2 28945   0.0180 217.1170 0005715 345.8038 157.0798  1.00269842 71655, SPAINSAT                   , YES
29045, 29045 2006-010   2006-010A , P        , JCSAT 5A                    , JCSAT 9                     , 2006 Apr 12, S29046      , 2006 Apr 13 0033   , Earth  , -                  , O      -      , JSAT        , J     , LMCSS       , A2100AX          , BT-4        , 4401     , 2000    ? , 4401     , 6.0  ?, 3.6  ? , 26.0  ?, Box + 2 Pan              , 2006 Jun 13, 35784  , 35789 , 0.03  , GEO/S  -           , ACTIVE, JCSAT-5A                , 2006-010A , 2025-10-03T14:16:34.800672,  1.00270763, 0.00022347  ,      0.4388,        87.5462,           30.5997,     240.6187,            0.0, U                  ,      29045.0,          999.0,       7119.0, 0.0           , -3.27e-06      , 0.0             , 2025-10-04 23:19:22, planet4589.org + Celestrak, 1 29045U 06010A   25276.59484723 -.00000327  00000-0  00000-0 0  9994, 2 29045   0.4388  87.5462 0002235  30.5997 240.6187  1.00270763 71194, JCSAT 9                    , YES
